CTC1_L_00641001-01
1 15248U 25114OF  26037.47810185  .00000000  00000+0  00000-0 0  9994
2 15248  65.0000   0.0000 0000000   0.0000   0.0000  3.78963995    13
CTC1_L_00641001-02
1 15249U 24062VP  26037.47810185  .00000000  00000+0  00000-0 0  9996
2 15249  65.0000   0.0000 0000000   0.0000  36.0000  3.78963995    13
CTC1_L_00641001-03
1 15250U 25479TU  26037.47810185  .00000000  00000+0  00000-0 0  9991
2 15250  65.0000   0.0000 0000000   0.0000  72.0000  3.78963995    15
CTC1_L_00641001-04
1 15251U 23301PJ  26037.47810185  .00000000  00000+0  00000-0 0  9994
2 15251  65.0000   0.0000 0000000   0.0000 108.0000  3.78963995    16
CTC1_L_00641001-05
1 15252U 25602EY  26037.47810185  .00000000  00000+0  00000-0 0  9991
2 15252  65.0000   0.0000 0000000   0.0000 144.0000  3.78963995    17
CTC1_L_00641001-06
1 15253U 25654BD  26037.47810185  .00000000  00000+0  00000-0 0  9999
2 15253  65.0000   0.0000 0000000   0.0000 180.0000  3.78963995    18
CTC1_L_00641001-07
1 15254U 25031WQ  26037.47810185  .00000000  00000+0  00000-0 0  9999
2 15254  65.0000   0.0000 0000000   0.0000 216.0000  3.78963995    19
CTC1_L_00641001-08
1 15255U 23434G   26037.47810185  .00000000  00000+0  00000-0 0  9995
2 15255  65.0000   0.0000 0000000   0.0000 252.0000  3.78963995    10
CTC1_L_00641001-09
1 15256U 25233PD  26037.47810185  .00000000  00000+0  00000-0 0  9995
2 15256  65.0000   0.0000 0000000   0.0000 288.0000  3.78963995    10
CTC1_L_00641001-10
1 15257U 23328RB  26037.47810185  .00000000  00000+0  00000-0 0  9999
2 15257  65.0000   0.0000 0000000   0.0000 324.0000  3.78963995    12
CTC1_L_00641002-01
1 15258U 22991DX  26037.47810185  .00000000  00000+0  00000-0 0  9995
2 15258  65.0000  30.0000 0000000   0.0000  12.0000  3.78963995    10
CTC1_L_00641002-02
1 15259U 25778LT  26037.47810185  .00000000  00000+0  00000-0 0  9992
2 15259  65.0000  30.0000 0000000   0.0000  48.0000  3.78963995    10
CTC1_L_00641002-03
1 15260U 23508YN  26037.47810185  .00000000  00000+0  00000-0 0  9993
2 15260  65.0000  30.0000 0000000   0.0000  84.0000  3.78963995    12
CTC1_L_00641002-04
1 15261U 22244MQ  26037.47810185  .00000000  00000+0  00000-0 0  9990
2 15261  65.0000  30.0000 0000000   0.0000 120.0000  3.78963995    14
CTC1_L_00641002-05
1 15262U 25247KQ  26037.47810185  .00000000  00000+0  00000-0 0  9997
2 15262  65.0000  30.0000 0000000   0.0000 156.0000  3.78963995    14
CTC1_L_00641002-06
1 15263U 23915RC  26037.47810185  .00000000  00000+0  00000-0 0  9998
2 15263  65.0000  30.0000 0000000   0.0000 192.0000  3.78963995    15
CTC1_L_00641002-07
1 15264U 25774DQ  26037.47810185  .00000000  00000+0  00000-0 0  9994
2 15264  65.0000  30.0000 0000000   0.0000 228.0000  3.78963995    16
CTC1_L_00641002-08
1 15265U 23076YI  26037.47810185  .00000000  00000+0  00000-0 0  9998
2 15265  65.0000  30.0000 0000000   0.0000 264.0000  3.78963995    17
CTC1_L_00641002-09
1 15266U 24405NB  26037.47810185  .00000000  00000+0  00000-0 0  9996
2 15266  65.0000  30.0000 0000000   0.0000 300.0000  3.78963995    19
CTC1_L_00641002-10
1 15267U 26398BD  26037.47810185  .00000000  00000+0  00000-0 0  9990
2 15267  65.0000  30.0000 0000000   0.0000 336.0000  3.78963995    19
CTC1_L_00641003-01
1 15268U 25306DW  26037.47810185  .00000000  00000+0  00000-0 0  9999
2 15268  65.0000  60.0000 0000000   0.0000  24.0000  3.78963995    17
CTC1_L_00641003-02
1 15269U 25722DL  26037.47810185  .00000000  00000+0  00000-0 0  9992
2 15269  65.0000  60.0000 0000000   0.0000  60.0000  3.78963995    18
CTC1_L_00641003-03
1 15270U 24438WE  26037.47810185  .00000000  00000+0  00000-0 0  9997
2 15270  65.0000  60.0000 0000000   0.0000  96.0000  3.78963995    19
CTC1_L_00641003-04
1 15271U 22379ZY  26037.47810185  .00000000  00000+0  00000-0 0  9990
2 15271  65.0000  60.0000 0000000   0.0000 132.0000  3.78963995    11
CTC1_L_00641003-05
1 15272U 22754HL  26037.47810185  .00000000  00000+0  00000-0 0  9998
2 15272  65.0000  60.0000 0000000   0.0000 168.0000  3.78963995    11
CTC1_L_00641003-06
1 15273U 26278UM  26037.47810185  .00000000  00000+0  00000-0 0  9994
2 15273  65.0000  60.0000 0000000   0.0000 204.0000  3.78963995    13
CTC1_L_00641003-07
1 15274U 22672WW  26037.47810185  .00000000  00000+0  00000-0 0  9999
2 15274  65.0000  60.0000 0000000   0.0000 240.0000  3.78963995    14
CTC1_L_00641003-08
1 15275U 24130QB  26037.47810185  .00000000  00000+0  00000-0 0  9991
2 15275  65.0000  60.0000 0000000   0.0000 276.0000  3.78963995    14
CTC1_L_00641003-09
1 15276U 25880BQ  26037.47810185  .00000000  00000+0  00000-0 0  9995
2 15276  65.0000  60.0000 0000000   0.0000 312.0000  3.78963995    16
CTC1_L_00641003-10
1 15277U 23252VQ  26037.47810185  .00000000  00000+0  00000-0 0  9997
2 15277  65.0000  60.0000 0000000   0.0000 348.0000  3.78963995    16
CTC1_L_00641004-01
1 15278U 22073LZ  26037.47810185  .00000000  00000+0  00000-0 0  9998
2 15278  65.0000  90.0000 0000000   0.0000  36.0000  3.78963995    14
CTC1_L_00641004-02
1 15279U 24826EU  26037.47810185  .00000000  00000+0  00000-0 0  9997
2 15279  65.0000  90.0000 0000000   0.0000  72.0000  3.78963995    15
CTC1_L_00641004-03
1 15280U 23580IN  26037.47810185  .00000000  00000+0  00000-0 0  9995
2 15280  65.0000  90.0000 0000000   0.0000 108.0000  3.78963995    17
CTC1_L_00641004-04
1 15281U 25426UB  26037.47810185  .00000000  00000+0  00000-0 0  9997
2 15281  65.0000  90.0000 0000000   0.0000 144.0000  3.78963995    18
CTC1_L_00641004-05
1 15282U 26795MH  26037.47810185  .00000000  00000+0  00000-0 0  9998
2 15282  65.0000  90.0000 0000000   0.0000 180.0000  3.78963995    19
CTC1_L_00641004-06
1 15283U 23329GK  26037.47810185  .00000000  00000+0  00000-0 0  9999
2 15283  65.0000  90.0000 0000000   0.0000 216.0000  3.78963995    10
CTC1_L_00641004-07
1 15284U 26624OO  26037.47810185  .00000000  00000+0  00000-0 0  9991
2 15284  65.0000  90.0000 0000000   0.0000 252.0000  3.78963995    11
CTC1_L_00641004-08
1 15285U 24330LL  26037.47810185  .00000000  00000+0  00000-0 0  9994
2 15285  65.0000  90.0000 0000000   0.0000 288.0000  3.78963995    11
CTC1_L_00641004-09
1 15286U 25491QP  26037.47810185  .00000000  00000+0  00000-0 0  9994
2 15286  65.0000  90.0000 0000000   0.0000 324.0000  3.78963995    13
CTC1_L_00641004-10
1 15287U 23124OA  26037.47810185  .00000000  00000+0  00000-0 0  9996
2 15287  65.0000  90.0000 0000000   0.0000   0.0000  3.78963995    15
CTC1_L_00641005-01
1 15288U 22250VL  26037.47810185  .00000000  00000+0  00000-0 0  9996
2 15288  65.0000 120.0000 0000000   0.0000  48.0000  3.78963995    12
CTC1_L_00641005-02
1 15289U 25629AK  26037.47810185  .00000000  00000+0  00000-0 0  9990
2 15289  65.0000 120.0000 0000000   0.0000  84.0000  3.78963995    13
CTC1_L_00641005-03
1 15290U 23327CX  26037.47810185  .00000000  00000+0  00000-0 0  9995
2 15290  65.0000 120.0000 0000000   0.0000 120.0000  3.78963995    16
CTC1_L_00641005-04
1 15291U 23871L   26037.47810185  .00000000  00000+0  00000-0 0  9990
2 15291  65.0000 120.0000 0000000   0.0000 156.0000  3.78963995    16
CTC1_L_00641005-05
1 15292U 24249IH  26037.47810185  .00000000  00000+0  00000-0 0  9991
2 15292  65.0000 120.0000 0000000   0.0000 192.0000  3.78963995    17
CTC1_L_00641005-06
1 15293U 24447XG  26037.47810185  .00000000  00000+0  00000-0 0  9992
2 15293  65.0000 120.0000 0000000   0.0000 228.0000  3.78963995    18
CTC1_L_00641005-07
1 15294U 25898HH  26037.47810185  .00000000  00000+0  00000-0 0  9994
2 15294  65.0000 120.0000 0000000   0.0000 264.0000  3.78963995    19
CTC1_L_00641005-08
1 15295U 22209DW  26037.47810185  .00000000  00000+0  00000-0 0  9998
2 15295  65.0000 120.0000 0000000   0.0000 300.0000  3.78963995    11
CTC1_L_00641005-09
1 15296U 26518RI  26037.47810185  .00000000  00000+0  00000-0 0  9996
2 15296  65.0000 120.0000 0000000   0.0000 336.0000  3.78963995    11
CTC1_L_00641005-10
1 15297U 23031FS  26037.47810185  .00000000  00000+0  00000-0 0  9994
2 15297  65.0000 120.0000 0000000   0.0000  12.0000  3.78963995    13
CTC1_L_00641006-01
1 15298U 23055VE  26037.47810185  .00000000  00000+0  00000-0 0  9991
2 15298  65.0000 150.0000 0000000   0.0000  60.0000  3.78963995    10
CTC1_L_00641006-02
1 15299U 25127ZC  26037.47810185  .00000000  00000+0  00000-0 0  9994
2 15299  65.0000 150.0000 0000000   0.0000  96.0000  3.78963995    10
CTC1_L_00641006-03
1 15300U 24709FP  26037.47810185  .00000000  00000+0  00000-0 0  9992
2 15300  65.0000 150.0000 0000000   0.0000 132.0000  3.78963995    14
CTC1_L_00641006-04
1 15301U 22135IB  26037.47810185  .00000000  00000+0  00000-0 0  9994
2 15301  65.0000 150.0000 0000000   0.0000 168.0000  3.78963995    14
CTC1_L_00641006-05
1 15302U 23140DG  26037.47810185  .00000000  00000+0  00000-0 0  9992
2 15302  65.0000 150.0000 0000000   0.0000 204.0000  3.78963995    16
CTC1_L_00641006-06
1 15303U 24704BK  26037.47810185  .00000000  00000+0  00000-0 0  9990
2 15303  65.0000 150.0000 0000000   0.0000 240.0000  3.78963995    17
CTC1_L_00641006-07
1 15304U 26584HK  26037.47810185  .00000000  00000+0  00000-0 0  9999
2 15304  65.0000 150.0000 0000000   0.0000 276.0000  3.78963995    17
CTC1_L_00641006-08
1 15305U 22850MZ  26037.47810185  .00000000  00000+0  00000-0 0  9992
2 15305  65.0000 150.0000 0000000   0.0000 312.0000  3.78963995    19
CTC1_L_00641006-09
1 15306U 22693TF  26037.47810185  .00000000  00000+0  00000-0 0  9998
2 15306  65.0000 150.0000 0000000   0.0000 348.0000  3.78963995    19
CTC1_L_00641006-10
1 15307U 22561ZU  26037.47810185  .00000000  00000+0  00000-0 0  9993
2 15307  65.0000 150.0000 0000000   0.0000  24.0000  3.78963995    11
CTC1_L_00641007-01
1 15308U 26934XV  26037.47810185  .00000000  00000+0  00000-0 0  9992
2 15308  65.0000 180.0000 0000000   0.0000  72.0000  3.78963995    18
CTC1_L_00641007-02
1 15309U 23567AS  26037.47810185  .00000000  00000+0  00000-0 0  9992
2 15309  65.0000 180.0000 0000000   0.0000 108.0000  3.78963995    19
